ONEWEB-0634             
1 56075U 23043AF  25240.70846856 -.00000078  00000+0 -24142-3 0  9994
2 56075  87.9070 317.5814 0001752 106.9053 253.2269 13.15548072117941
ONEWEB-0635             
1 56076U 23043AG  25240.77977549 -.00000192  00000+0 -54393-3 0  9994
2 56076  87.9044 317.5334 0002162  93.9495 266.1883 13.15546951117984
ONEWEB-0636             
1 56077U 23043AH  25240.77185461 -.00000100  00000+0 -29897-3 0  9999
2 56077  87.9054 317.5499 0002143  94.9543 265.1832 13.15548473117964
ONEWEB-0637             
1 56078U 23043AJ  25240.76552306 -.00000047  00000+0 -15759-3 0  9997
2 56078  87.9055 317.5639 0002211 103.2781 256.8596 13.15547557117984
ONEWEB-0647             
1 56079U 23043AK  25240.76075747  .00000031  00000+0  47708-4 0  9998
2 56079  87.9064 317.5771 0001927  92.4585 267.6766 13.15548252117977
ONEWEB-0651             
1 56080U 23043AL  25240.75600540  .00000052  00000+0  10513-3 0  9990
2 56080  87.9071 317.5682 0002200  98.4670 261.6710 13.15548710119170
ONEWEB-0718             
1 56081U 23043AM  25240.75126208  .00000076  00000+0  16701-3 0  9996
2 56081  87.9063 317.5514 0001709 117.1799 242.9506 13.15548911117985
ONEWEB-0561             
1 56710U 23068A   25240.77655632  .00000748  00000+0  18071-2 0  9999
2 56710  87.9289 332.7385 0002271  87.7101 272.4292 13.20767736110902
